OBJECT_NAME,OBJECT_ID,EPOCH,MEAN_MOTION,ECCENTRICITY,INCLINATION,RA_OF_ASC_NODE,ARG_OF_PERICENTER,MEAN_ANOMALY,EPHEMERIS_TYPE,CLASSIFICATION_TYPE,NORAD_CAT_ID,ELEMENT_SET_NO,REV_AT_EPOCH,BSTAR,MEAN_MOTION_DOT,MEAN_MOTION_DDOT
NIMIQ 2,2002-062A,2026-06-26T15:27:30.335040,1.00272427,.0005795,9.4671,56.7999,33.3539,307.3033,0,U,27632,999,4427,0,-.67E-6,0
USA 167,2003-008A,2026-06-26T06:28:17.196672,1.00272785,.00038771,10.9790,43.3284,319.8612,246.5871,0,U,27691,999,686,0,.4E-7,0
USA 169 (MILSTAR-2 4),2003-012A,2026-06-26T09:51:13.030272,1.00272605,.01007506,12.3632,29.7672,9.7044,175.0262,0,U,27711,999,3304,0,-.267E-5,0
ASIASAT 4,2003-014A,2026-06-26T12:56:38.735808,1.00270895,.00028254,4.7272,75.6312,24.1335,156.6053,0,U,27718,999,4539,0,-.216E-5,0
HELLAS-SAT 2,2003-020A,2026-06-26T10:47:35.463264,1.00272606,.000321,7.3772,67.7754,41.1417,317.5227,0,U,27811,999,4293,0,-.8E-6,0
THURAYA-2,2003-026A,2026-06-26T05:55:04.620864,1.00273034,.00027556,8.8534,31.9357,14.9637,0.2565,0,U,27825,999,8444,0,.127E-5,0
OPTUS C1,2003-028B,2026-06-26T12:56:38.735808,1.00272382,.00058235,6.9127,69.2986,21.4874,173.8006,0,U,27831,999,5315,0,-.146E-5,0
USA 170,2003-040A,2026-06-24T19:36:12.072096,1.00271103,.00021206,10.5162,47.8771,60.7420,122.5828,0,U,27875,999,3307,0,.125E-5,0
GALAXY 13 (HORIZONS-1),2003-044A,2026-06-26T16:58:22.268352,1.00269626,.0001722,1.4432,83.7437,3.2702,292.3982,0,U,27954,999,4666,0,.143E-5,0
YAMAL 202,2003-053A,2026-06-26T14:09:49.332384,1.00271061,.000314,6.3670,70.8248,14.2973,205.5783,0,U,28089,999,8279,0,-.76E-6,0
UFO 11 (USA 174),2003-057A,2026-06-26T16:20:02.132736,1.00271668,.0002348,8.9522,33.7799,71.1193,130.5155,0,U,28117,999,8254,0,-.102E-5,0
USA 176 (DSP 22),2004-004A,2026-06-26T09:41:39.074208,1.00274016,.000119,12.0745,26.0034,323.7208,20.9389,0,U,28158,999,3302,0,-.296E-5,0
ABS-4 (MOBISAT-1),2004-007A,2026-06-26T05:59:41.678016,1.00268580,.0004543,6.0639,71.8973,21.8547,331.5536,0,U,28184,999,5242,0,.45E-6,0
INTELSAT 10-02,2004-022A,2026-06-26T09:07:38.083296,1.00270205,.00001419,0.0291,283.7274,174.6547,312.0308,0,U,28358,999,8064,0,0,0
ANIK F2,2004-027A,2026-06-26T15:26:52.896192,1.00272190,.0004264,3.3115,79.3251,14.2373,301.7934,0,U,28378,999,4135,0,-.42E-6,0
AMC-15,2004-041A,2026-06-26T15:28:00.288192,1.00272804,.0002499,0.0205,30.5434,58.6963,312.4730,0,U,28446,999,7939,0,-.77E-6,0
NSS-10,2005-003A,2026-06-26T10:29:39.530112,1.00272518,.0003177,6.4723,70.3434,15.5291,308.6495,0,U,28526,999,5324,0,-.247E-5,0
INMARSAT 4-F1,2005-009A,2026-06-26T09:58:23.486304,1.00273262,.00028739,5.1802,42.7744,51.3280,148.1504,0,U,28628,999,7776,0,.39E-6,0
DIRECTV 8,2005-019A,2026-06-26T13:41:57.242688,1.00271674,.00032812,0.0207,68.0631,30.9102,262.1588,0,U,28659,999,7716,0,.12E-6,0
GALAXY 28 (G-28),2005-022A,2026-06-26T10:42:50.916960,1.00271144,.00022927,3.3216,78.8201,15.6162,313.7490,0,U,28702,999,5206,0,-.192E-5,0
THAICOM 4,2005-028A,2026-06-26T14:49:58.996416,1.00271219,.00020105,0.2696,85.8092,357.8289,173.1047,0,U,28786,999,5234,0,-.351E-5,0
ANIK F1R,2005-036A,2026-06-26T17:10:36.096384,1.00271764,.0004464,4.3368,76.4669,6.4279,342.2855,0,U,28868,999,4654,0,-.68E-6,0
SYRACUSE 3A,2005-041B,2026-06-26T17:54:33.236064,1.00272106,.0002781,4.6659,75.7211,16.1603,138.2617,0,U,28885,999,7584,0,.136E-5,0
INMARSAT 4-F2,2005-044A,2026-06-26T13:52:33.866400,1.00272050,.0003298,5.1068,43.6837,41.0859,181.5625,0,U,28899,999,7561,0,-.254E-5,0
METEOSAT-9 (MSG-2),2005-049B,2026-06-26T17:54:10.772064,1.00277588,.000199,9.3825,54.0746,356.9761,178.0964,0,U,28912,999,709,0,.126E-5,0
EUTELSAT 174A,2005-052A,2026-06-26T15:07:38.751168,1.00274482,.0006563,4.2431,76.4159,16.7711,222.4697,0,U,28924,999,5242,0,.17E-6,0
ECHOSTAR 10,2006-003A,2026-06-26T17:09:43.680096,1.00271764,.000231,0.0190,336.4816,69.6095,15.9879,0,U,28935,999,7455,0,-.44E-6,0
SPAINSAT,2006-007A,2026-06-26T07:43:05.032128,1.00271607,.0005112,0.5868,86.4030,6.6494,267.0015,0,U,28945,999,7431,0,-.206E-5,0
JCSAT-5A,2006-010A,2026-06-26T14:53:32.146080,1.00272228,.00022499,1.1339,84.1369,358.8466,187.1936,0,U,29045,999,7386,0,-.317E-5,0
ASTRA 1KR,2006-012A,2026-06-26T16:03:58.097088,1.00274851,.0003864,0.4983,83.2456,358.6574,92.8990,0,U,29055,999,4579,0,.13E-5,0
GALAXY 16 (G-16),2006-023A,2026-06-26T15:30:15.073056,1.00272111,.0002877,0.0429,127.0475,316.8293,324.4423,0,U,29236,999,7306,0,-.115E-5,0
EUTELSAT 33F,2006-032A,2026-06-26T17:50:41.107776,1.00270089,.0003777,1.6860,82.1516,9.2665,124.1941,0,U,29270,999,4740,0,.165E-5,0
