NIMIQ 2                 
1 27632U 02062A   26177.64410110 -.00000067  00000+0  00000+0 0  9992
2 27632   9.4671  56.7999 0005795  33.3539 307.3033  1.00272427 44277
USA 167                 
1 27691U 03008A   26177.26964348  .00000004  00000+0  00000+0 0  9993
2 27691  10.9790  43.3284 0003877 319.8612 246.5871  1.00272785  6867
USA 169 (MILSTAR-2 4)   
1 27711U 03012A   26177.41056748 -.00000267  00000+0  00000+0 0  9996
2 27711  12.3632  29.7672 0100750   9.7044 175.0262  1.00272605 33043
ASIASAT 4               
1 27718U 03014A   26177.53933722 -.00000216  00000+0  00000+0 0  9998
2 27718   4.7272  75.6312 0002825  24.1335 156.6053  1.00270895 45397
HELLAS-SAT 2            
1 27811U 03020A   26177.44971601 -.00000080  00000+0  00000+0 0  9996
2 27811   7.3772  67.7754 0003210  41.1417 317.5227  1.00272606 42936
THURAYA-2               
1 27825U 03026A   26177.24658126  .00000127  00000+0  00000+0 0  9990
2 27825   8.8534  31.9357 0002755  14.9637   0.2565  1.00273034 84449
OPTUS C1                
1 27831U 03028B   26177.53933722 -.00000146  00000+0  00000+0 0  9991
2 27831   6.9127  69.2986 0005823  21.4874 173.8006  1.00272382 53156
USA 170                 
1 27875U 03040A   26175.81680639  .00000125  00000+0  00000+0 0  9994
2 27875  10.5162  47.8771 0002120  60.7420 122.5828  1.00271103 33070
GALAXY 13 (HORIZONS-1)  
1 27954U 03044A   26177.70720218  .00000143  00000+0  00000+0 0  9994
2 27954   1.4432  83.7437 0001722   3.2702 292.3982  1.00269626 46660
YAMAL 202               
1 28089U 03053A   26177.59015431 -.00000076  00000+0  00000+0 0  9991
2 28089   6.3670  70.8248 0003140  14.2973 205.5783  1.00271061 82798
UFO 11 (USA 174)        
1 28117U 03057A   26177.68058024 -.00000102  00000+0  00000+0 0  9992
2 28117   8.9522  33.7799 0002348  71.1193 130.5155  1.00271668 82544
USA 176 (DSP 22)        
1 28158U 04004A   26177.40392447 -.00000296  00000+0  00000+0 0  9994
2 28158  12.0745  26.0034 0001190 323.7208  20.9389  1.00274016 33026
ABS-4 (MOBISAT-1)       
1 28184U 04007A   26177.24978794  .00000045  00000+0  00000+0 0  9994
2 28184   6.0639  71.8973 0004543  21.8547 331.5536  1.00268580 52426
INTELSAT 10-02          
1 28358U 04022A   26177.38030189  .00000000  00000+0  00000+0 0  9997
2 28358   0.0291 283.7274 0000141 174.6547 312.0308  1.00270205 80645
ANIK F2                 
1 28378U 04027A   26177.64366778 -.00000042  00000+0  00000+0 0  9996
2 28378   3.3115  79.3251 0004264  14.2373 301.7934  1.00272190 41358
AMC-15                  
1 28446U 04041A   26177.64444778 -.00000077  00000+0  00000+0 0  9993
2 28446   0.0205  30.5434 0002499  58.6963 312.4730  1.00272804 79395
NSS-10                  
1 28526U 05003A   26177.43726308 -.00000247  00000+0  00000+0 0  9999
2 28526   6.4723  70.3434 0003177  15.5291 308.6495  1.00272518 53244
INMARSAT 4-F1           
1 28628U 05009A   26177.41554961  .00000039  00000+0  00000+0 0  9998
2 28628   5.1802  42.7744 0002873  51.3280 148.1504  1.00273262 77764
DIRECTV 8               
1 28659U 05019A   26177.57080142  .00000012  00000+0  00000+0 0  9996
2 28659   0.0207  68.0631 0003281  30.9102 262.1588  1.00271674 77165
GALAXY 28 (G-28)        
1 28702U 05022A   26177.44642265 -.00000192  00000+0  00000+0 0  9995
2 28702   3.3216  78.8201 0002292  15.6162 313.7490  1.00271144 52068
THAICOM 4               
1 28786U 05028A   26177.61804394 -.00000351  00000+0  00000+0 0  9992
2 28786   0.2696  85.8092 0002010 357.8289 173.1047  1.00271219 52343
ANIK F1R                
1 28868U 05036A   26177.71569556 -.00000068  00000+0  00000+0 0  9996
2 28868   4.3368  76.4669 0004464   6.4279 342.2855  1.00271764 46548
SYRACUSE 3A             
1 28885U 05041B   26177.74621801  .00000136  00000+0  00000+0 0  9991
2 28885   4.6659  75.7211 0002781  16.1603 138.2617  1.00272106 75842
INMARSAT 4-F2           
1 28899U 05044A   26177.57816975 -.00000254  00000+0  00000+0 0  9990
2 28899   5.1068  43.6837 0003298  41.0859 181.5625  1.00272050 75612
METEOSAT-9 (MSG-2)      
1 28912U 05049B   26177.74595801  .00000126  00000+0  00000+0 0  9999
2 28912   9.3825  54.0746 0001990 356.9761 178.0964  1.00277588  7092
EUTELSAT 174A           
1 28924U 05052A   26177.63030962  .00000017  00000+0  00000+0 0  9995
2 28924   4.2431  76.4159 0006563  16.7711 222.4697  1.00274482 52429
ECHOSTAR 10             
1 28935U 06003A   26177.71508889 -.00000044  00000+0  00000+0 0  9992
2 28935   0.0190 336.4816 0002310  69.6095  15.9879  1.00271764 74559
SPAINSAT                
1 28945U 06007A   26177.32158602 -.00000206  00000+0  00000+0 0  9998
2 28945   0.5868  86.4030 0005112   6.6494 267.0015  1.00271607 74316
JCSAT-5A                
1 29045U 06010A   26177.62051095 -.00000317  00000+0  00000+0 0  9998
2 29045   1.1339  84.1369 0002249 358.8466 187.1936  1.00272228 73860
ASTRA 1KR               
1 29055U 06012A   26177.66942242  .00000130  00000+0  00000+0 0  9990
2 29055   0.4983  83.2456 0003864 358.6574  92.8990  1.00274851 45794
GALAXY 16 (G-16)        
1 29236U 06023A   26177.64600779 -.00000115  00000+0  00000+0 0  9991
2 29236   0.0429 127.0475 0002877 316.8293 324.4423  1.00272111 73064
EUTELSAT 33F            
1 29270U 06032A   26177.74353134  .00000165  00000+0  00000+0 0  9994
2 29270   1.6860  82.1516 0003777   9.2665 124.1941  1.00270089 47402
